0 TITAN 3C TRANSTAGE DEB
1 38703U 68081AD  19154.20148230 -.00000064 +00000-0 +00000-0 0  9995
2 38703 003.2353 292.3659 0263326 169.3079 191.4451 01.05421155020362
0 TITAN 3C TRANSTAGE DEB
1 38704U 68081AE  19154.38640084 -.00000266 +00000-0 +00000-0 0  9993
2 38704 002.2331 311.8982 0190973 295.6173 062.4825 01.02203884049737
0 TITAN 3C TRANSTAGE DEB
1 38704U 68081AE  19154.38643372 -.00000266  00000-0  00000+0 0  9995
2 38704   2.2332 311.9074 0190995 295.5820  62.5171  1.02203819 49758
0 TITAN 3C TRANSTAGE DEB
1 38705U 68081AF  19154.23986965 -.00000032 +00000-0 +00000-0 0  9990
2 38705 003.1892 308.5280 0271048 088.2147 274.9530 01.02060588048828
0 TITAN 3C TRANSTAGE DEB
1 38705U 68081AF  19154.23986958 -.00000032  00000-0  00000+0 0  9991
2 38705   3.1892 308.5282 0271053  88.2086 274.9591  1.02060378 48866
0 BKA 2
1 38708U 12039B   19155.36980682  .00000082  00000-0  69434-5 0  9995
2 38708  97.3965  64.8844 0001324  74.0645  60.1262 15.19702336380912
0 BKA 2
1 38708U 12039B   19155.49275179  .00000079  00000-0  68129-5 0  9993
2 38708  97.3965  65.0049 0001327  73.5170  12.8670 15.19702351380938
0 BKA 2
1 38708U 12039B   19155.24170110  .00000112  00000-0  83836-5 0  9995
2 38708  97.3965  64.7590 0001281  74.7686  79.0136 15.19702498380898
0 EXACTVIEW-1
1 38709U 12039C   19155.04641945 -.00000015  00000-0  14157-4 0  9995
2 38709  99.1393 168.8559 0011313   6.6472 353.4851 14.23993133356853
0 EXACTVIEW-1
1 38709U 12039C   19155.46800475 -.00000015  00000-0  14459-4 0  9991
2 38709  99.1395 169.2944 0011303   5.5943 354.5358 14.23993148356915
0 EXACTVIEW-1
1 38709U 12039C   19154.90589107 -.00000012 +00000-0 +15564-4 0  9990
2 38709 099.1393 168.7099 0011307 007.0371 353.0963 14.23993152356836
0 MKA-FKI 1
1 38711U 12039E   19154.88279864 -.00000004 +00000-0 +18874-4 0  9994
2 38711 099.1347 168.0398 0011663 007.6320 352.5032 14.24263132356872
0 MKA-FKI 1
1 38711U 12039E   19155.02330042 -.00000006  00000-0  17946-4 0  9998
2 38711  99.1347 168.1858 0011658   7.2327 352.9017 14.24263146356895
0 FENGYUN 1C DEB
1 38722U 99025ETP 19155.48093901  .00000727  00000-0  26991-3 0  9998
2 38722  99.3603  41.0713 0249942  95.8229 267.1495 14.19663344494311
0 FENGYUN 1C DEB
1 38723U 99025ETQ 19155.24709234  .00000725  00000-0  29301-3 0  9992
2 38723  99.4861 172.4274 0045877  92.1114 268.5320 14.30800935429800
0 TIANLIAN 1-03
1 38730U 12040A   19155.25743888  .00000133  00000-0  00000+0 0  9990
2 38730   0.1322 272.7508 0001999  95.3110 357.4359  1.00275572 25225
0 TIANLIAN 1-03
1 38730U 12040A   19154.59968300 +.00000134 +00000-0 +00000-0 0  9996
2 38730 000.1335 272.8295 0002045 096.0046 119.2178 01.00275406025210
0 NOAA 14 DEB
1 38732U 94089D   19154.86554337 +.00000215 +00000-0 +12073-3 0  9998
2 38732 098.7169 242.8555 0015680 275.8193 084.1196 14.20379826355162
0 NOAA 14 DEB
1 38732U 94089D   19155.21776030  .00000217  00000-0  12180-3 0  9995
2 38732  98.7169 243.2027 0015686 274.7273  85.2112 14.20380009354854
0 YUBELEINY 2
1 38735U 12041C   19155.21524330  .00000000  00000-0 -69006-4 0  9991
2 38735  82.4765 237.1049 0015750 268.1701  91.7494 12.42578190310758
0 YUBELEINY 2
1 38735U 12041C   19154.73214115 +.00000022 +00000-0 +86049-4 0  9993
2 38735 082.4773 237.4061 0015765 268.5025 091.4248 12.42578578310690
0 INTELSAT 20
1 38740U 12043A   19154.88521560 -.00000017 +00000-0 +00000-0 0  9996
2 38740 000.0069 100.3755 0001497 093.7188 085.1192 01.00271008024974
0 INTELSAT 20
1 38740U 12043A   19155.39896019 -.00000018  00000-0  00000+0 0  9997
2 38740   0.0058  97.8955 0001278  98.4399 268.3339  1.00270931 25060
0 INTELSAT 20
1 38740U 12043A   19155.16438389 -.00000017  00000-0  00000+0 0  9993
2 38740   0.0064 337.7870 0001118 223.4606 178.7409  1.00271103 25067
0 HYLAS 2
1 38741U 12043B   19155.24786753  .00000161  00000-0  00000+0 0  9993
2 38741   0.0184 335.5846 0001566  91.7039 305.3754  1.00273538 25080
0 ARIANE 5 R/B
1 38742U 12043C   19154.96440753  .00003195  00000-0  57793-3 0  9994
2 38742   5.6940  94.3712 7181843 153.5037 276.1188  2.41693341 58933
0 ARIANE 5 R/B
1 38742U 12043C   19154.55184145 +.00003285 +00000-0 +59739-3 0  9991
2 38742 005.6914 094.5698 7181941 153.1194 277.1538 02.41690507058906
0 TELKOM 3
1 38744U 12044A   19154.84801438 +.00043308 +68266-5 +36814-3 0  9999
2 38744 049.8724 168.3736 0891406 255.4421 094.6091 14.01540741199923
0 TELKOM 3
1 38744U 12044A   19154.99061312  .00045771  68534-5  38802-3 0  9997
2 38744  49.8724 167.7842 0891359 255.9346  94.1007 14.01554751299796
0 TELKOM 3
1 38744U 12044A   19155.41839988  .00046768  68628-5  39579-3 0  9990
2 38744  49.8725 166.0156 0891197 257.4054  92.5872 14.01601974299859
0 TELKOM 3
1 38744U 12044A   19155.48969661  .00048320  68811-5  40838-3 0  9999
2 38744  49.8726 165.7209 0891153 257.6514  92.3349 14.01610998299864
0 EXPRESS MD2
1 38745U 12044B   19154.89060723 +.00002731 +24848-5 +91629-4 0  9998
2 38745 049.8948 004.9960 2229623 329.7622 019.1037 10.98464419265556
0 BREEZE-M R/B
1 38746U 12044C   19154.88930799 +.00004410 +00000-0 +27751-3 0  9996
2 38746 049.6832 337.1719 2411233 111.6312 275.7233 10.49300975246957
0 CZ-3B DEB
1 38748U 10042C   19154.67181900 +.00001307 +00000-0 +17273-2 0  9992
2 38748 023.6814 253.2383 7387484 195.3663 115.5660 02.10903676057859
0 INTELSAT 21
1 38749U 12045A   19154.87118282 -.00000277 +00000-0 +00000-0 0  9997
2 38749 000.0199 348.5938 0001846 080.5268 078.5314 01.00269340024773
0 INTELSAT 21
1 38749U 12045A   19155.45769906 -.00000278  00000-0  00000+0 0  9997
2 38749   0.0192 356.2722 0001894  73.1146 289.9892  1.00269060 24878
0 BLOCK DM-SL R/B
1 38750U 12045B   19155.40092636 -.00000109  00000-0  50065-4 0  9997
2 38750   0.1538   4.0772 7186619 303.4875   6.6059  2.38539267 58273
0 BLOCK DM-SL R/B
1 38750U 12045B   19154.56256276 -.00000098 +00000-0 +50335-4 0  9992
2 38750 000.1558 003.5703 7186582 303.6304 006.6716 02.38539052058262
0 RBSP A
1 38752U 12046A   19153.85196926 +.00007991 +00000-0 +67962-3 0  9992
2 38752 009.5895 217.1321 6959209 069.1022 348.8831 02.72250280066117
0 RBSP A
1 38752U 12046A   19154.95359387  .00008219  00000-0  67962-3 0  9990
2 38752   9.5771 216.5277 6959507  70.2565 348.6207  2.72269712 66169
0 RBSP A
1 38752U 12046A   19155.29102683  .00008933  00000-0  73243-3 0  9995
2 38752   9.5777 216.3593 6959573  70.5880 319.3591  2.72275005 66163
0 RBSP B
1 38753U 12046B   19155.08778709  .00011347  00000-0  99399-3 0  9994
2 38753   9.7814 231.0443 6975422  42.8292 354.0767  2.70016894 65635
0 RBSP B
1 38753U 12046B   19155.45807275  .00013851  00000-0  99577-3 0  9996
2 38753   9.7709 230.9092 6978645  43.0724 354.0224  2.70027796 65641
0 RBSP B
1 38753U 12046B   19154.34718751  .00013593  00000-0  99399-3 0  9998
2 38753   9.7754 231.5064 6978637  41.9350 354.1936  2.70000123 65613
0 RBSP B
1 38753U 12046B   19154.34718751 +.00013593 +00000-0 +99399-3 0  9998
2 38753 009.7754 231.5064 6978637 041.9350 354.1936 02.70000123065578
0 SPOT 6
1 38755U 12047A   19155.17705147 -.00000029  00000-0  36356-5 0  9995
2 38755  98.2111 222.4343 0001141  75.0509 285.0824 14.58545337358454
0 SPOT 6
1 38755U 12047A   19155.31425550 -.00000019  00000-0  57381-5 0  9998
2 38755  98.2110 222.5699 0001129  75.4290 284.7043 14.58545443358474
0 PROITERES
1 38756U 12047B   19155.39022609  .00000039  00000-0  13548-4 0  9992
2 38756  98.3668 311.4015 0012251 359.8622   0.2597 14.76566977362677
0 PROITERES
1 38756U 12047B   19155.18693036  .00000034  00000-0  12817-4 0  9990
2 38756  98.3669 311.1909 0012277   0.6313 359.4901 14.76566847362644
0 PSLV R/B
1 38757U 12047C   19155.22992167  .00000025  00000-0  10946-4 0  9994
2 38757  98.0892 264.6008 0005371 353.0407   7.0728 14.77598370362930
0 PSLV R/B
1 38757U 12047C   19154.89133020 +.00000020 +00000-0 +10233-4 0  9995
2 38757 098.0892 264.2611 0005396 354.1985 005.9162 14.77598316362867
0 METOP-B
1 38771U 12049A   19154.94116899 -.00000006 +00000-0 +17422-4 0  9996
2 38771 098.7041 214.4752 0001532 055.3659 300.5231 14.21489521348103
0 BEIDOU 14
1 38774U 12050A   19154.31439854 +.00000083 +00000-0 +00000-0 0  9995
2 38774 054.8455 149.3687 0034289 212.8568 146.9348 01.86251618029967
0 BEIDOU 15
1 38775U 12050B   19154.40335003 +.00000082 +00000-0 +00000-0 0  9996
2 38775 054.9516 149.1172 0024200 250.1316 107.6684 01.86232241045788
0 BEIDOU 15
1 38775U 12050B   19155.47459374  .00000076  00000-0  00000+0 0  9994
2 38775  54.9523 149.0810 0024196 250.2087 105.8151  1.86232265 45802
0 ASTRA 2F
1 38778U 12051A   19154.88836830 +.00000158 +00000-0 +00000-0 0  9990
2 38778 000.0585 220.6072 0000980 328.4557 050.9962 01.00273073015395
0 GSAT 10
1 38779U 12051B   19155.47363414 -.00000159  00000-0  00000+0 0  9991
2 38779   0.0490 133.3491 0003454 300.3748  72.4828  1.00270108 24527
0 GSAT 10
1 38779U 12051B   19154.97115519 -.00000158  00000-0  00000+0 0  9995
2 38779   0.0404 134.0220 0003465 299.6572 251.1422  1.00270207 24512
0 ARIANE 5 R/B
1 38780U 12051C   19154.85099455 +.00000403 +00000-0 +12732-3 0  9995
2 38780 005.9511 150.0440 7131514 155.6330 269.8101 02.47666461058561
0 ARIANE 5 DEB (SYLDA)
1 38781U 12051D   19154.54849404 +.00018674 +00000-0 +12042-2 0  9991
2 38781 006.3300 150.0704 5472416 145.5382 266.8401 04.91289328100920
0 ARIANE 5 DEB (SYLDA)
1 38781U 12051D   19154.95456866  .00021333  00000-0  14196-2 0  9990
2 38781   6.3301 149.6099 5471282 146.4164 265.0967  4.91310865100873
0 VRSS-1
1 38782U 12052A   19155.05099221  .00000052  00000-0  14818-4 0  9990
2 38782  97.8100 224.2728 0016346 312.4732  47.5094 14.75932823360220
